STARLINK-37909          
1 69566U 26135W   26188.06012175  .00267059  00000+0  13465-2 0  9995
2 69566  97.2835 216.2870 0001481 140.4426 219.6950 15.80917415  3409
STARLINK-37934          
1 69567U 26135X   26188.44312228  .00293381  00000+0  14681-2 0  9998
2 69567  97.2845 216.6838 0003261 125.2579 234.8995 15.81011723  3469
STARLINK-37938          
1 69568U 26135Y   26188.75003471 -.02622498  00000+0 -21410-1 0  9996
2 69568  97.2852 217.0066 0001490  95.8648 207.2576 15.73822650  4614
STARLINK-37924          
1 69569U 26135Z   26188.75443731  .00272508  00000+0  13772-2 0  9996
2 69569  97.2851 217.0247 0000777  60.8099 299.3247 15.80850857  3517
SHIJIAN-31 (SJ-31)      
1 69570U 26136A   26188.26313873  .00000266  00000+0  00000+0 0  9995
2 69570  63.4845 354.0116 6940525 171.8139 212.3449  1.92221837   471
GUOWANG OBJECT A        
1 69572U 26137A   26188.49959995 -.00000182  00000+0 -29075-4 0  9991
2 69572  49.9993 174.5302 0012561 292.8938  67.0634 13.89812313  2841
GUOWANG OBJECT B        
1 69573U 26137B   26188.35289024 -.00000227  00000+0 -65527-4 0  9998
2 69573  50.0020 175.0859 0011863 291.3397  68.6235 13.89804031  2837
GUOWANG OBJECT C        
1 69574U 26137C   26188.49561916 -.00000141  00000+0  40943-5 0  9997
2 69574  49.9955 174.4945 0011905 293.5437  66.4211 13.89814786  2857
GUOWANG OBJECT D        
1 69575U 26137D   26188.63831374 -.00000167  00000+0 -17304-4 0  9995
2 69575  49.9951 173.9146 0011098 292.5440  67.4283 13.89827506  2873
GUOWANG OBJECT E        
1 69576U 26137E   26188.49352111 -.00000231  00000+0 -68481-4 0  9991
2 69576  50.0032 174.5043 0011231 295.1696  64.8037 13.89825253  2854
GUOWANG OBJECT F        
1 69577U 26137F   26188.49266887 -.00000225  00000+0 -63624-4 0  9993
2 69577  50.0023 174.4976 0010836 294.9267  65.0505 13.89809671  2859
GUOWANG OBJECT G        
1 69578U 26137G   26188.49177663 -.00000243  00000+0 -78595-4 0  9990
2 69578  49.9951 174.4735 0010828 294.6672  65.3098 13.89794637  2853
GUOWANG OBJECT H        
1 69579U 26137H   26176.48489301  .00000037  00000+0  14270-3 0  9990
2 69579  49.9967 222.2731 0010122 259.8752 100.1006 13.92076941  1185
GUOWANG OBJECT J        
1 69580U 26137J   26178.27848690  .00000022  00000+0  13174-3 0  9997
2 69580  49.9961 215.0979 0011832 257.3150 102.6427 13.91997107  1436
CENTISPACE-1 GROUP 05 O*
1 69582U 26138A   26188.55025397 -.00000272  00000+0 -60465-4 0  9998
2 69582  55.1386 205.9785 0010819 327.0781  32.9519 14.15471146  2907
CENTISPACE-1 GROUP 05 O*
1 69583U 26138B   26188.54763243 -.00000344  00000+0 -96523-4 0  9991
2 69583  55.1382 205.9631 0009784 327.3115  32.7252 14.15651743  2902
CENTISPACE-1 GROUP 05 O*
1 69584U 26138C   26188.75822534 -.00000353  00000+0 -10109-3 0  9999
2 69584  55.1388 205.1828 0009729 329.5102  30.5305 14.15735731  2936
CENTISPACE-1 GROUP 05 O*
1 69585U 26138D   26188.75571199 -.00000425  00000+0 -13723-3 0  9993
2 69585  55.1388 205.1610 0009309 328.5047  31.5369 14.15922210  2938
CENTISPACE-1 GROUP 05 O*
1 69586U 26138E   26188.54296918 -.00000415  00000+0 -13185-3 0  9995
2 69586  55.1382 205.9456 0009019 328.4222  31.6210 14.15989162  2903
CENTISPACE-1 GROUP 05 O*
1 69587U 26138F   26188.54389892 -.00000413  00000+0 -13099-3 0  9992
2 69587  55.1385 205.9519 0008907 332.7839  27.2668 14.15912238  2902
CENTISPACE-1 GROUP 05 O*
1 69588U 26138G   26187.41208090 -.00000465  00000+0 -15691-3 0  9995
2 69588  55.1388 210.1104 0008089 329.6669  30.3836 14.16077285  2740
SPACEMOBILE-008         
1 69589U 26139A   26188.42315776  .00000613  00000+0  51460-4 0  9997
2 69589  52.9937 170.6933 0004638  37.6326 322.4989 15.12794365  3048
SPACEMOBILE-009         
1 69590U 26139B   26188.35850118  .00000601  00000+0  50953-4 0  9998
2 69590  52.9928 170.9976 0004891  32.8078 327.3216 15.12687590  3039
SPACEMOBILE-010         
1 69591U 26139C   26188.42681726  .00000587  00000+0  50381-4 0  9992
2 69591  52.9932 170.7141 0004773  24.0576 336.0637 15.12518827  3054
KUIPER-00423            
1 69592U 26140A   26188.64777461  .00012529  00000+0  33379-3 0  9997
2 69592  51.8807 299.6069 0013488 241.2423 118.7210 15.38474912  4384
KUIPER-00428            
1 69593U 26140B   26188.74326223  .00021138  00000+0  58678-3 0  9990
2 69593  51.8807 299.4916 0007897   5.0917 355.0148 15.36828451  4391
KUIPER-00481            
1 69594U 26140C   26188.65600056  .00012193  00000+0  33216-3 0  9992
2 69594  51.8783 299.6565 0011105 249.6761 110.3033 15.37840552  4388
KUIPER-00490            
1 69595U 26140D   26188.66555503  .00018106  00000+0  48849-3 0  9998
2 69595  51.8769 299.7147 0006267 311.9924  48.0529 15.37831000  4382
